OBJECT_NAME,OBJECT_ID,EPOCH,MEAN_MOTION,ECCENTRICITY,INCLINATION,RA_OF_ASC_NODE,ARG_OF_PERICENTER,MEAN_ANOMALY,EPHEMERIS_TYPE,CLASSIFICATION_TYPE,NORAD_CAT_ID,ELEMENT_SET_NO,REV_AT_EPOCH,BSTAR,MEAN_MOTION_DOT,MEAN_MOTION_DDOT
ICEYE-X40,2024-149CK,2026-07-21T04:02:34.259712,14.98101188,.00032719,97.6800,278.1192,347.2707,12.8432,0,U,60549,999,10516,.15315153E-3,.1755E-4,0
SATELIOT_1,2024-149CL,2026-07-22T03:48:43.163424,14.98185888,.00049679,97.6738,278.4744,331.3751,28.7198,0,U,60550,999,10530,.18320441E-3,.2116E-4,0
BRO-14,2024-149CM,2026-07-22T04:07:31.461888,14.96250974,.00061962,97.6862,278.3205,355.3315,4.7847,0,U,60551,999,10522,.8853553E-4,.942E-5,0
SATELIOT_3,2024-149CN,2026-07-22T04:50:14.375328,14.98176032,.00043517,97.6803,279.3417,335.2971,24.8043,0,U,60552,999,10532,.11535545E-3,.131E-4,0
BRO-15,2024-149CP,2026-07-22T03:42:43.209792,14.96231129,.00070318,97.6790,277.8725,341.9882,18.1089,0,U,60553,999,10523,.99791058E-4,.1069E-4,0
UM5-RIBAT,2024-149CQ,2026-07-22T03:12:13.269024,15.01239728,.00005512,97.6591,280.4583,246.9291,113.1876,0,U,60554,999,10543,.14929781E-3,.1858E-4,0
UM5-EOSAT,2024-149CR,2026-07-22T03:43:17.478624,15.01759283,.00087912,97.6777,281.5029,17.0906,343.0613,0,U,60555,999,10546,.19432211E-3,.2472E-4,0
LASARSAT,2024-247Q,2026-07-21T01:29:22.653600,15.48302336,.00082489,44.9738,71.5646,202.6776,157.3752,0,U,62391,999,8856,.50949715E-3,.27288E-3,0
CROCUBE,2024-247T,2026-07-21T15:49:36.031584,15.50548927,.00086465,44.9713,64.9220,212.7388,147.2968,0,U,62394,999,8869,.71514974E-3,.41735E-3,0
TEVEL2-4,2025-052D,2026-07-22T04:24:32.969952,15.35744990,.00028764,97.3852,99.6543,37.6826,322.4619,0,U,63213,999,7548,.6152178E-3,.21346E-3,0
TEVEL2-5,2025-052E,2026-07-21T22:44:39.677280,15.35543714,.0002922,97.3850,99.3550,40.5078,319.6383,0,U,63214,999,7544,.58209566E-3,.20059E-3,0
TEVEL2-6,2025-052F,2026-07-21T05:51:18.650304,15.35478834,.0003085,97.3856,98.6345,43.9320,316.2168,0,U,63215,999,7533,.4237897E-3,.14542E-3,0
TEVEL2-1,2025-052H,2026-07-20T23:01:26.909472,15.34894951,.00037459,97.3828,97.9321,47.7905,312.3656,0,U,63217,999,7527,.37939109E-3,.12768E-3,0
TEVEL2-3,2025-052J,2026-07-22T04:35:25.291680,15.35007108,.00035371,97.3841,99.1918,48.5551,311.5996,0,U,63218,999,7546,.60877449E-3,.20629E-3,0
TEVEL2-2,2025-052K,2026-07-21T05:17:04.845408,15.34915096,.00038099,97.3827,98.1963,47.4460,312.7104,0,U,63219,999,7531,.41373721E-3,.13942E-3,0
TEVEL2-9,2025-052AD,2026-07-21T05:49:15.661632,15.32853308,.00070834,97.3890,97.5180,39.6084,320.5675,0,U,63237,999,7524,.41132929E-3,.12991E-3,0
TEVEL2-7,2025-052AE,2026-07-21T22:38:12.943104,15.32558839,.0007135,97.3894,98.1186,37.8377,322.3365,0,U,63238,999,7534,.54215259E-3,.16998E-3,0
TEVEL2-8,2025-052AF,2026-07-21T11:52:25.242240,15.32528866,.00072293,97.3893,97.6468,39.9501,320.2272,0,U,63239,999,7527,.47862667E-3,.1498E-3,0
FORESAIL-1 PRIME,2025-276DS,2026-07-22T04:15:06.775200,15.18978526,.00023186,97.4184,275.8111,27.6529,332.4829,0,U,66778,999,3571,.18737762E-3,.3851E-4,0
